1 45667U 20035L   22365.11304166  .00004726  00000-0  33584-3 0  9993
2 45667  53.0551 254.6475 0001573  74.1049 286.0113 15.06412066143193
1 45667U 20035L   22365.11304166  .00004726  00000-0  33584-3 0  9993
2 45667  53.0551 254.6475 0001573  74.1049 286.0113 15.06412066142844
1 45667U 20035L   22365.71016720  .00002994  00000-0  21974-3 0  9990
2 45667  53.0555 251.9649 0001737  80.4018 279.7167 15.06408914143283
1 45667U 20035L   23001.10825003 -.00001010  00000-0 -48886-4 0  9995
2 45667  53.0538 250.1785 0001565  79.0389 281.0776 15.06402497143349
1 45667U 20035L   23001.10825003 -.00001010  00000-0 -48886-4 0  9995
2 45667  53.0538 250.1785 0001565  79.0389 281.0776 15.06402497142999
1 45667U 20035L   23001.70538190 -.00006273  00000-0 -40273-3 0  9996
2 45667  53.0538 247.4955 0001351  87.4310 272.6834 15.06386100143430
1 45667U 20035L   23002.03713304 -.00008658  00000-0 -56353-3 0  9990
2 45667  53.0545 246.0084 0001645  84.0415 276.0761 15.06368685143133
1 45667U 20035L   23002.36885842 -.00001052  00000-0 -51762-4 0  9994
2 45667  53.0542 244.5192 0001234  84.0499 276.0631 15.06389654143189
1 45667U 20035L   23002.63424900 -.00000550  00000-0 -18052-4 0  9995
2 45667  53.0540 243.3282 0001042  83.2350 276.8757 15.06387098143578
1 45667U 20035L   23002.70059684  .00000259  00000-0  36280-4 0  9993
2 45667  53.0536 243.0304 0001067  78.7347 281.3762 15.06386611143585
1 45667U 20035L   23003.62945440  .00006990  00000-0  48773-3 0  9996
2 45667  53.0537 238.8603 0001362  85.5585 274.5560 15.06398817143725
1 45667U 20035L   23003.62945440  .00006990  00000-0  48773-3 0  9996
2 45667  53.0537 238.8603 0001362  85.5585 274.5560 15.06398817143376
1 45667U 20035L   23004.35926764  .00005189  00000-0  36692-3 0  9991
2 45667  53.0537 235.5842 0001467  84.5512 275.5644 15.06407015143836
1 45667U 20035L   23004.89003457  .00004776  00000-0  33913-3 0  9999
2 45667  53.0535 233.2014 0001476  85.2468 274.8689 15.06416291143914
1 45667U 20035L   23005.15541642  .00006777  00000-0  47313-3 0  9994
2 45667  53.0532 232.0093 0001637  85.7361 274.3815 15.06423838143608
1 45667U 20035L   23005.35445896  .00002737  00000-0  20253-3 0  9996
2 45667  53.0529 231.1162 0001698  84.0983 276.0199 15.06412157143987
1 45667U 20035L   23005.35445896  .00002737  00000-0  20253-3 0  9996
2 45667  53.0529 231.1162 0001698  84.0983 276.0199 15.06412157143639
1 45667U 20035L   23005.75253432  .00003935  00000-0  28280-3 0  9992
2 45667  53.0529 229.3291 0001458  91.0085 269.1071 15.06417434144047
1 45667U 20035L   23006.61505344 -.00003098  00000-0 -18921-3 0  9993
2 45667  53.0531 225.4580 0001448  80.3720 279.7432 15.06392112144171
1 45667U 20035L   23006.61505344 -.00003098  00000-0 -18921-3 0  9993
2 45667  53.0531 225.4580 0001448  80.3720 279.7432 15.06392112143822
1 45667U 20035L   23007.01313531 -.00001851  00000-0 -10539-3 0  9995
2 45667  53.0542 223.6707 0001455  80.8429 279.2725 15.06399655144239
1 45667U 20035L   23007.87565294 -.00001428  00000-0 -76994-4 0  9992
2 45667  53.0539 219.7976 0001363  84.4089 275.7056 15.06387785144362
1 45667U 20035L   23008.00834834 -.00000359  00000-0 -52184-5 0  9995
2 45667  53.0539 219.2022 0001413  84.8768 275.2382 15.06383480144032
1 45667U 20035L   23008.60547299  .00000324  00000-0  40627-4 0  9995
2 45667  53.0545 216.5214 0001324  85.3164 274.7976 15.06385691144476
1 45667U 20035L   23008.87085964  .00000707  00000-0  66383-4 0  9992
2 45667  53.0544 215.3302 0001330  85.8940 274.2201 15.06388670144515
1 45667U 20035L   23008.87085964  .00000707  00000-0  66383-4 0  9992
2 45667  53.0544 215.3302 0001330  85.8940 274.2201 15.06388670144166
1 45667U 20035L   23009.60067546  .00002057  00000-0  15702-3 0  9998
2 45667  53.0541 212.0542 0001459  87.5868 272.5288 15.06390407144621
1 45667U 20035L   23009.99875522  .00002452  00000-0  18347-3 0  9998
2 45667  53.0538 210.2671 0001478  87.1443 272.9715 15.06394860144688
1 45667U 20035L   23009.99875522  .00002452  00000-0  18347-3 0  9998
2 45667  53.0538 210.2671 0001478  87.1443 272.9715 15.06394860144330
1 45667U 20035L   23010.79491924  .00001461  00000-0  11697-3 0  9998
2 45667  53.0521 206.6924 0001534  89.4106 270.7059 15.06396894144804
1 45667U 20035L   23011.25934622  .00001047  00000-0  89201-4 0  9994
2 45667  53.0528 204.6083 0001377  87.9859 272.1288 15.06400290144523
1 45667U 20035L   23011.52473514  .00000753  00000-0  69424-4 0  9990
2 45667  53.0518 203.4165 0001474  89.0501 271.0656 15.06398344144911
1 45667U 20035L   23011.79012309  .00000453  00000-0  49291-4 0  9997
2 45667  53.0525 202.2247 0001562  89.4585 270.6583 15.06398260144956
1 45667U 20035L   23012.78532236  .00001053  00000-0  89592-4 0  9998
2 45667  53.0528 197.7571 0001589  88.7454 271.3717 15.06400115144751
1 45667U 20035L   23012.91801607  .00001106  00000-0  93141-4 0  9998
2 45667  53.0533 197.1618 0001561  88.5100 271.6068 15.06400858145127
1 45667U 20035L   23013.51514098  .00000741  00000-0  68646-4 0  9996
2 45667  53.0527 194.4807 0001547  88.8165 271.3002 15.06396881145213
1 45667U 20035L   23013.91322124  .00000785  00000-0  71596-4 0  9993
2 45667  53.0529 192.6935 0001512  88.9028 271.2134 15.06398415145274
1 45667U 20035L   23014.17861025  .00000409  00000-0  46351-4 0  9994
2 45667  53.0528 191.5021 0001505  88.7912 271.3249 15.06397142144968
1 45667U 20035L   23015.43920218  .00000596  00000-0  58936-4 0  9993
2 45667  53.0526 185.8438 0001420  91.8000 268.3151 15.06395106145151
1 45667U 20035L   23015.57189818  .00000071  00000-0  23680-4 0  9997
2 45667  53.0528 185.2478 0001406  90.7152 269.3998 15.06393348145528
1 45667U 20035L   23015.70458984  .00000322  00000-0  40539-4 0  9996
2 45667  53.0530 184.6525 0001369  90.9501 269.1645 15.06395942145546
1 45667U 20035L   23016.16901434  .00001589  00000-0  12556-3 0  9993
2 45667  53.0536 182.5674 0001482  87.6738 272.4420 15.06399524145611
1 45667U 20035L   23016.76613815  .00000533  00000-0  54666-4 0  9999
2 45667  53.0542 179.8861 0001284  81.6283 278.4852 15.06399064145708
1 45667U 20035L   23016.76613815  .00000533  00000-0  54666-4 0  9999
2 45667  53.0542 179.8861 0001284  81.6283 278.4852 15.06399064145359
1 45667U 20035L   23017.42961445  .00000102  00000-0  25754-4 0  9996
2 45667  53.0537 176.9082 0001087  87.2889 272.8224 15.06387693145807
1 45667U 20035L   23017.42961445  .00000102  00000-0  25754-4 0  9996
2 45667  53.0537 176.9082 0001087  87.2889 272.8224 15.06387693145458
1 45667U 20035L   23017.69499961  .00000489  00000-0  51735-4 0  9990
2 45667  53.0535 175.7172 0000994  87.4490 272.6613 15.06391564145844
1 45667U 20035L   23018.15942187  .00000534  00000-0  54741-4 0  9996
2 45667  53.0537 173.6325 0001175  84.5007 275.6116 15.06401076145916
1 45667U 20035L   23018.15942187  .00000534  00000-0  54741-4 0  9996
2 45667  53.0537 173.6325 0001175  84.5007 275.6116 15.06401076145567
1 45667U 20035L   23018.75654051  .00000809  00000-0  73188-4 0  9993
2 45667  53.0527 170.9515 0001156  97.3469 262.7651 15.06405292146005
1 45667U 20035L   23019.42001964  .00001378  00000-0  11145-3 0  9993
2 45667  53.0521 167.9725 0001584  92.5350 267.5820 15.06390606146103
1 45667U 20035L   23019.42001964  .00001378  00000-0  11145-3 0  9993
2 45667  53.0521 167.9725 0001584  92.5350 267.5820 15.06390606145753
1 45667U 20035L   23019.55272092  .00007392  00000-0  51510-3 0  9991
2 45667  53.0521 167.3767 0001316 100.1157 259.9980 15.06366747145770
1 45667U 20035L   23019.68540442  .00000659  00000-0  63167-4 0  9993
2 45667  53.0545 166.7823 0001357  83.9505 276.1639 15.06396796145793
1 45667U 20035L   23020.41521550  .00000042  00000-0  21720-4 0  9990
2 45667  53.0547 163.5056 0001595  84.5506 275.5665 15.06405827146250
1 45667U 20035L   23020.68059627  .00002165  00000-0  16413-3 0  9990
2 45667  53.0538 162.3143 0001359  81.4168 278.6975 15.06410277145940
1 45667U 20035L   23021.07868297  .00000123  00000-0  27126-4 0  9991
2 45667  53.0535 160.5278 0001203  79.1928 280.9196 15.06403028146007
1 45667U 20035L   23021.34407980  .00000228  00000-0  34233-4 0  9992
2 45667  53.0541 159.3356 0001657  79.7417 280.3759 15.06393912146042
1 45667U 20035L   23022.47197232  .00000221  00000-0  33701-4 0  9995
2 45667  53.0534 154.2738 0001145  87.2223 272.8897 15.06401832146212
1 45667U 20035L   23023.40083157  .00002446  00000-0  18306-3 0  9993
2 45667  53.0529 150.1038 0001179  90.6011 269.5113 15.06394227146352
1 45667U 20035L   23024.52872211  .00002200  00000-0  16650-3 0  9992
2 45667  53.0536 145.0390 0001108  94.8121 265.2995 15.06406567146525
1 45667U 20035L   23025.12584959  .00001508  00000-0  12010-3 0  9994
2 45667  53.0526 142.3613 0001337  75.0839 285.0298 15.06399084146614
1 45667U 20035L   23025.45758867 -.00000905  00000-0 -41902-4 0  9996
2 45667  53.0542 140.8739 0001275  62.3624 297.7495 15.06388973146665
1 45667U 20035L   23025.59027839 -.00000120  00000-0  10807-4 0  9997
2 45667  53.0534 140.2748 0001097  93.7106 266.4008 15.06394094147031
1 45667U 20035L   23026.12105349  .00000914  00000-0  80255-4 0  9994
2 45667  53.0531 137.8920 0001159  93.0544 267.0578 15.06396019146767
1 45667U 20035L   23026.58547835  .00002789  00000-0  20601-3 0  9994
2 45667  53.0526 135.8064 0001246  95.7770 264.3361 15.06403772147187
1 45667U 20035L   23027.38164894  .00001480  00000-0  11829-3 0  9992
2 45667  53.0522 132.2322 0001338  97.6102 262.5039 15.06389425147307
1 45667U 20035L   23027.38164894  .00001480  00000-0  11829-3 0  9992
2 45667  53.0522 132.2322 0001338  97.6102 262.5039 15.06389425146957
1 45667U 20035L   23027.97876674  .00001414  00000-0  11382-3 0  9994
2 45667  53.0520 129.5521 0001287  93.1310 266.9826 15.06398859147044
1 45667U 20035L   23028.50954614  .00000592  00000-0  58650-4 0  9991
2 45667  53.0530 127.1695 0001751 113.7021 246.4151 15.06394307147122
1 45667U 20035L   23028.57589125  .00001020  00000-0  87375-4 0  9992
2 45667  53.0532 126.8717 0001216  74.6666 285.4458 15.06397716147480
1 45667U 20035L   23028.64223527  .00000198  00000-0  32207-4 0  9990
2 45667  53.0552 126.5740 0001384 108.6676 251.4463 15.06402670147496
1 45667U 20035L   23028.64223527  .00000198  00000-0  32207-4 0  9990
2 45667  53.0552 126.5740 0001384 108.6676 251.4463 15.06402670147148
1 45667U 20035L   23029.23936309  .00001263  00000-0  10372-3 0  9997
2 45667  53.0547 123.8941 0001321  91.8713 268.2427 15.06392257147236
1 45667U 20035L   23029.63744141  .00000810  00000-0  73249-4 0  9992
2 45667  53.0530 122.1053 0001200  92.5563 267.5563 15.06397273147642
1 45667U 20035L   23030.43360675  .00001016  00000-0  87117-4 0  9996
2 45667  53.0547 118.5322 0001263  91.5664 268.5469 15.06394473147418
1 45667U 20035L   23030.49995141  .00000766  00000-0  70339-4 0  9993
2 45667  53.0528 118.2329 0001036  85.9218 274.1889 15.06397924147773
1 45667U 20035L   23031.49515375  .00001037  00000-0  88520-4 0  9994
2 45667  53.0531 113.7667 0000954  56.4691 303.6389 15.06398056147576
